NORAD_CAT_ID,OBJECT_NAME,OBJECT_TYPE,EPOCH,MEAN_MOTION,ECCENTRICITY,INCLINATION,RA_OF_ASC_NODE,ARG_OF_PERICENTER,MEAN_ANOMALY,BSTAR,MEAN_MOTION_DOT,MEAN_MOTION_DDOT,TLE_LINE0,TLE_LINE1,TLE_LINE2,SEMIMAJOR_AXIS,PERIOD,APOGEE,PERIGEE,DECAYED
53390.0,STARLINK-4517,PAYLOAD,2023-02-09 11:50:16,15.08843051,0.0001192,53.2139,130.8474,95.3708,264.742,0.00087732,0.00013703,0.0,0 STARLINK-4517,1 53390U 22097C   23040.49324899  .00013703  00000-0  87732-3 0  9991,2 53390  53.2139 130.8474 0001192  95.3708 264.7420 15.08843051 29109,6917.871,95.437,540.561,538.911,0.0
53390.0,STARLINK-4517,PAYLOAD,2023-02-09 18:11:49,15.08866478,0.000132,53.2149,129.6584,87.4936,272.6208,0.0022303,0.00035412,0.0,0 STARLINK-4517,1 53390U 22097C   23040.75820684  .00035412  00000-0  22303-2 0  9996,2 53390  53.2149 129.6584 0001320  87.4936 272.6208 15.08866478 28341,6917.799,95.436,540.578,538.751,0.0
53390.0,STARLINK-4517,PAYLOAD,2023-02-09 22:57:58,15.08857752,0.0001163,53.2129,128.7613,71.9411,288.1708,0.00079473,0.00012389,0.0,0 STARLINK-4517,1 53390U 22097C   23040.95692622  .00012389  00000-0  79473-3 0  9996,2 53390  53.2129 128.7613 0001163  71.9411 288.1708 15.08857752 28378,6917.826,95.436,540.496,538.887,0.0
53390.0,STARLINK-4517,PAYLOAD,2023-02-10 11:41:03,15.08858303,0.0001334,53.2136,126.3821,72.4523,287.6615,0.00042467,6.48e-05,0.0,0 STARLINK-4517,1 53390U 22097C   23041.48684172  .00006480  00000-0  42467-3 0  9994,2 53390  53.2136 126.3821 0001334  72.4523 287.6615 15.08858303 28454,6917.824,95.436,540.612,538.767,0.0
53390.0,STARLINK-4517,PAYLOAD,2023-02-10 18:02:35,15.08880819,0.0001161,53.2151,125.193,75.0267,285.0854,0.0011677,0.00018366,0.0,0 STARLINK-4517,1 53390U 22097C   23041.75179400  .00018366  00000-0  11677-2 0  9991,2 53390  53.2151 125.1930 0001161  75.0267 285.0854 15.08880819 28499,6917.756,95.435,540.424,538.817,0.0
53390.0,STARLINK-4517,PAYLOAD,2023-02-10 22:48:45,15.08822318,6.62e-05,53.2143,124.3037,98.472,261.6347,-0.0011568,-0.00018641,0.0,0 STARLINK-4517,1 53390U 22097C   23041.95052126 -.00018641  00000-0 -11568-2 0  9995,2 53390  53.2143 124.3037 0000662  98.4720 261.6347 15.08822318 28528,6917.934,95.439,540.257,539.341,0.0
53390.0,STARLINK-4517,PAYLOAD,2023-02-11 16:17:59,15.08851724,0.0001404,53.2151,121.0292,98.6205,261.4946,0.00040884,6.227e-05,0.0,0 STARLINK-4517,1 53390U 22097C   23042.67916003  .00006227  00000-0  40884-3 0  9997,2 53390  53.2151 121.0292 0001404  98.6205 261.4946 15.08851724 29436,6917.845,95.437,540.681,538.738,0.0
53390.0,STARLINK-4517,PAYLOAD,2023-02-11 22:39:32,15.08825342,0.0001335,53.2139,119.843,103.9469,256.1672,-6.0965e-05,-1.258e-05,0.0,0 STARLINK-4517,1 53390U 22097C   23042.94412771 -.00001258  00000-0 -60965-4 0  9994,2 53390  53.2139 119.8430 0001335 103.9469 256.1672 15.08825342 28675,6917.925,95.438,540.714,538.867,0.0
53390.0,STARLINK-4517,PAYLOAD,2023-02-12 05:01:05,15.08824973,0.0001551,53.2122,118.6553,100.2711,259.8456,0.0001539,2.161e-05,0.0,0 STARLINK-4517,1 53390U 22097C   23043.20909220  .00002161  00000-0  15390-3 0  9997,2 53390  53.2122 118.6553 0001551 100.2711 259.8456 15.08824973 29513,6917.926,95.439,540.864,538.718,0.0
53390.0,STARLINK-4517,PAYLOAD,2023-02-12 16:08:47,15.0884417,0.0001987,53.2115,116.5727,101.7499,258.3716,0.0010502,0.00016467,0.0,0 STARLINK-4517,1 53390U 22097C   23043.67277328  .00016467  00000-0  10502-2 0  9998,2 53390  53.2115 116.5727 0001987 101.7499 258.3716 15.08844170 28789,6917.868,95.437,541.107,538.358,0.0
53390.0,STARLINK-4517,PAYLOAD,2023-02-13 04:51:52,15.08845688,0.0002071,53.2149,114.1871,122.3721,237.7472,0.001166,0.00018321,0.0,0 STARLINK-4517,1 53390U 22097C   23044.20269624  .00018321  00000-0  11660-2 0  9995,2 53390  53.2149 114.1871 0002071 122.3721 237.7472 15.08845688 28866,6917.863,95.437,541.161,538.295,0.0
53390.0,STARLINK-4517,PAYLOAD,2023-02-13 11:13:25,15.0885785,0.0002084,53.2144,113.0011,95.4856,264.6374,0.0020723,0.00032863,0.0,0 STARLINK-4517,1 53390U 22097C   23044.46765740  .00032863  00000-0  20723-2 0  9990,2 53390  53.2144 113.0011 0002084  95.4856 264.6374 15.08857850 29706,6917.826,95.436,541.133,538.249,0.0
53390.0,STARLINK-4517,PAYLOAD,2023-02-14 11:04:12,15.0886197,0.0001378,53.2141,108.5426,109.1649,250.9492,0.0026685,0.00042463,0.0,0 STARLINK-4517,1 53390U 22097C   23045.46125904  .00042463  00000-0  26685-2 0  9993,2 53390  53.2141 108.5426 0001378 109.1649 250.9492 15.08861970 29055,6917.813,95.436,540.632,538.725,0.0
53390.0,STARLINK-4517,PAYLOAD,2023-02-14 14:14:58,15.08870055,0.000122,53.2149,107.9481,105.8428,254.2698,0.0027435,0.00043682,0.0,0 STARLINK-4517,1 53390U 22097C   23045.59373742  .00043682  00000-0  27435-2 0  9990,2 53390  53.2149 107.9481 0001220 105.8428 254.2698 15.08870055 29870,6917.789,95.436,540.497,538.81,0.0
53390.0,STARLINK-4517,PAYLOAD,2023-02-14 15:50:21,15.0887592,0.0001168,53.2145,107.6502,104.5061,255.6061,0.0027347,0.00043547,0.0,0 STARLINK-4517,1 53390U 22097C   23045.65997584  .00043547  00000-0  27347-2 0  9995,2 53390  53.2145 107.6502 0001168 104.5061 255.6061 15.08875920 29883,6917.771,95.435,540.444,538.828,0.0
53390.0,STARLINK-4517,PAYLOAD,2023-02-14 20:36:31,15.0884783,0.0001651,53.2152,106.7584,87.8725,272.2456,0.0011184,0.0001756,0.0,0 STARLINK-4517,1 53390U 22097C   23045.85870065  .00017560  00000-0  11184-2 0  9999,2 53390  53.2152 106.7584 0001651  87.8725 272.2456 15.08847830 29116,6917.856,95.437,540.864,538.579,0.0
53390.0,STARLINK-4517,PAYLOAD,2023-02-15 10:54:59,15.08859346,0.0001093,53.2145,104.0825,87.6477,272.4641,0.0016978,0.0002685,0.0,0 STARLINK-4517,1 53390U 22097C   23046.45485685  .00026850  00000-0  16978-2 0  9994,2 53390  53.2145 104.0825 0001093  87.6477 272.4641 15.08859346 30002,6917.821,95.436,540.442,538.93,0.0
53390.0,STARLINK-4517,PAYLOAD,2023-02-15 14:05:45,15.08876016,0.0001255,53.2166,103.4887,84.4424,275.6711,0.0025174,0.00040044,0.0,0 STARLINK-4517,1 53390U 22097C   23046.58733436  .00040044  00000-0  25174-2 0  9997,2 53390  53.2166 103.4887 0001255  84.4424 275.6711 15.08876016 30021,6917.77,95.435,540.503,538.767,0.0
53390.0,STARLINK-4517,PAYLOAD,2023-02-16 09:10:23,15.08861754,0.0001178,53.2142,99.9188,121.4323,238.6785,0.0024359,0.00038716,0.0,0 STARLINK-4517,1 53390U 22097C   23047.38221784  .00038716  00000-0  24359-2 0  9991,2 53390  53.2142  99.9188 0001178 121.4323 238.6785 15.08861754 29348,6917.814,95.436,540.494,538.864,0.0
53390.0,STARLINK-4517,PAYLOAD,2023-02-16 12:21:09,15.08870963,0.0001173,53.214,99.3241,121.1286,238.9822,0.0028353,0.00045164,0.0,0 STARLINK-4517,1 53390U 22097C   23047.51469650  .00045164  00000-0  28353-2 0  9995,2 53390  53.2140  99.3241 0001173 121.1286 238.9822 15.08870963 30169,6917.786,95.436,540.462,538.839,0.0
53390.0,STARLINK-4517,PAYLOAD,2023-02-16 20:18:05,15.08828373,0.0001136,53.2149,97.8371,100.0468,260.0652,-0.00024721,-4.219e-05,0.0,0 STARLINK-4517,1 53390U 22097C   23047.84590090 -.00004219  00000-0 -24721-3 0  9998,2 53390  53.2149  97.8371 0001136 100.0468 260.0652 15.08828373 29413,6917.916,95.438,540.567,538.995,0.0
53390.0,STARLINK-4517,PAYLOAD,2023-02-17 12:11:58,15.08837771,0.0001494,53.2141,94.8631,99.5865,260.5296,0.0020192,0.00031992,0.0,0 STARLINK-4517,1 53390U 22097C   23048.50831073  .00031992  00000-0  20192-2 0  9994,2 53390  53.2141  94.8631 0001494  99.5865 260.5296 15.08837771 30313,6917.887,95.438,540.786,538.719,0.0
53390.0,STARLINK-4517,PAYLOAD,2023-02-17 15:22:44,15.08841845,0.0001562,53.2136,94.2677,99.2502,260.8667,0.0017976,0.00028438,0.0,0 STARLINK-4517,1 53390U 22097C   23048.64079124  .00028438  00000-0  17976-2 0  9997,2 53390  53.2136  94.2677 0001562  99.2502 260.8667 15.08841845 29536,6917.875,95.437,540.82,538.659,0.0
53390.0,STARLINK-4517,PAYLOAD,2023-02-17 20:08:54,15.08822671,0.0001884,53.2112,93.3736,96.5729,263.5477,0.00021234,3.091e-05,0.0,0 STARLINK-4517,1 53390U 22097C   23048.83951623  .00003091  00000-0  21234-3 0  9992,2 53390  53.2112  93.3736 0001884  96.5729 263.5477 15.08822671 30362,6917.933,95.439,541.102,538.495,0.0
53390.0,STARLINK-4517,PAYLOAD,2023-02-18 08:51:59,15.08829517,0.0001234,53.2122,90.9944,104.4715,255.6414,0.0002093,3.044e-05,0.0,0 STARLINK-4517,1 53390U 22097C   23049.36943921  .00003044  00000-0  20930-3 0  9993,2 53390  53.2122  90.9944 0001234 104.4715 255.6414 15.08829517 30448,6917.912,95.438,540.631,538.924,0.0
53390.0,STARLINK-4517,PAYLOAD,2023-02-18 19:59:41,15.08849697,0.000164,53.2138,88.916,90.594,269.524,0.00091557,0.00014317,0.0,0 STARLINK-4517,1 53390U 22097C   23049.83311848  .00014317  00000-0  91557-3 0  9990,2 53390  53.2138  88.9160 0001640  90.5940 269.5240 15.08849697 29718,6917.851,95.437,540.85,538.581,0.0
53390.0,STARLINK-4517,PAYLOAD,2023-02-19 13:28:54,15.0888134,0.0001678,53.2136,85.6448,89.027,271.0914,0.0011301,0.00017764,0.0,0 STARLINK-4517,1 53390U 22097C   23050.56174388  .00017764  00000-0  11301-2 0  9995,2 53390  53.2136  85.6448 0001678  89.0270 271.0914 15.08881340 30628,6917.754,95.435,540.78,538.458,0.0
53390.0,STARLINK-4517,PAYLOAD,2023-02-19 19:50:27,15.08848419,0.0001636,53.2155,84.4543,91.8508,268.2672,-0.00012016,-2.2e-05,0.0,0 STARLINK-4517,1 53390U 22097C   23050.82670781 -.00002200  00000-0 -12016-3 0  9998,2 53390  53.2155  84.4543 0001636  91.8508 268.2672 15.08848419 29864,6917.855,95.437,540.851,538.588,0.0
53390.0,STARLINK-4517,PAYLOAD,2023-02-20 08:33:32,15.0885869,0.0001377,53.2143,82.0756,89.7209,270.3941,0.0005124,7.88e-05,0.0,0 STARLINK-4517,1 53390U 22097C   23051.35662256  .00007880  00000-0  51240-3 0  9994,2 53390  53.2143  82.0756 0001377  89.7209 270.3941 15.08858690 30741,6917.823,95.436,540.641,538.736,0.0
53390.0,STARLINK-4517,PAYLOAD,2023-02-20 13:19:41,15.08858913,0.0001369,53.2142,81.1831,89.4634,270.6515,0.0014702,0.000232,0.0,0 STARLINK-4517,1 53390U 22097C   23051.55534230  .00023200  00000-0  14702-2 0  9991,2 53390  53.2142  81.1831 0001369  89.4634 270.6515 15.08858913 29975,6917.823,95.436,540.635,538.741,0.0
